[{"OBJECT_NAME":"LEMUR-2-GREENBERG","OBJECT_ID":"2017-042N","EPOCH":"2026-03-09T11:05:17.256192","MEAN_MOTION":15.27971352,"ECCENTRICITY":0.00091572,"INCLINATION":97.3781,"RA_OF_ASC_NODE":249.8007,"ARG_OF_PERICENTER":4.0119,"MEAN_ANOMALY":356.1192,"EPHEMERIS_TYPE":0,"CLASSIFICATION_TYPE":"U","NORAD_CAT_ID":42837,"ELEMENT_SET_NO":999,"REV_AT_EPOCH":47314,"BSTAR":0.00072539172,"MEAN_MOTION_DOT":0.00019778,"MEAN_MOTION_DDOT":0},{"OBJECT_NAME":"STARLINK-31461","OBJECT_ID":"2024-060Y","EPOCH":"2026-03-09T12:43:01.052256","MEAN_MOTION":15.27585158,"ECCENTRICITY":6.037e-5,"INCLINATION":42.9991,"RA_OF_ASC_NODE":249.9203,"ARG_OF_PERICENTER":289.4421,"MEAN_ANOMALY":70.6365,"EPHEMERIS_TYPE":0,"CLASSIFICATION_TYPE":"U","NORAD_CAT_ID":59370,"ELEMENT_SET_NO":999,"REV_AT_EPOCH":11010,"BSTAR":-0.00011759407,"MEAN_MOTION_DOT":-3.497e-5,"MEAN_MOTION_DDOT":0}]
